FLOCK 4BE-32            
1 60497U 24149AF  26094.67665501  .00026217  00000+0  66361-3 0  9995
2 60497  97.3730 177.9482 0004608 164.9078 195.2306 15.39720872 91019
FLOCK 4BE-30            
1 60499U 24149AH  26094.79677442  .00107157  00000+0  24214-2 0  9990
2 60499  97.3807 178.7094 0003386 205.8793 154.2285 15.42770961 90417
FLOCK 4BE-11            
1 60501U 24149AK  26094.77617285  .00027229  00000+0  67088-3 0  9999
2 60501  97.3715 178.2053 0004708 165.0286 195.1100 15.40536110 91046
FLOCK 4BE-24            
1 60505U 24149AP  26094.76036707  .00026481  00000+0  65569-3 0  9997
2 60505  97.3728 178.4347 0004780 174.1053 186.0250 15.40390396 91055
TANAGER-1               
1 60507U 24149AR  26094.81874515  .00023423  00000+0  51786-3 0  9991
2 60507  97.3726 188.5532 0007230 199.1597 160.9380 15.43809009 91713
FLOCK 4BE-29            
1 60509U 24149AT  26094.76474208  .00028883  00000+0  68415-3 0  9994
2 60509  97.3817 179.6701 0003239 176.3857 183.7414 15.41722844 91097
FLOCK 4BE-2             
1 60511U 24149AV  26094.80472587  .00061050  00000+0  12501-2 0  9997
2 60511  97.3822 180.4274 0004317 178.5966 181.5296 15.45881646 91144
FLOCK 4BE-13            
1 60512U 24149AW  26094.77341051  .00023003  00000+0  57946-3 0  9994
2 60512  97.3731 178.5333 0004829 161.5200 198.6222 15.39893319 91061
FLOCK 4BE-27            
1 60513U 24149AX  26094.66922619  .00014123  00000+0  44243-3 0  9997
2 60513  97.3837 176.5546 0004002 185.5212 174.5987 15.33190009 90874
FLOCK 4BE-9             
1 60514U 24149AY  26094.78042970  .00023295  00000+0  61182-3 0  9995
2 60514  97.3801 178.4638 0003382 176.5957 183.5311 15.38615857 91022
FLOCK 4BE-6             
1 60516U 24149BA  26094.75587102  .00021119  00000+0  57375-3 0  9997
2 60516  97.3801 177.9243 0004122 179.1460 180.9793 15.37587307 90987
FLOCK 4BE-14            
1 60517U 24149BB  26094.21557699  .00030303  00000+0  79151-3 0  9998
2 60517  97.3710 177.4659 0004992 184.1465 175.9740 15.38726009 90946
FLOCK 4BE-1             
1 60518U 24149BC  26094.75921532  .00026236  00000+0  65387-3 0  9995
2 60518  97.3792 179.0384 0004761 181.9815 178.1413 15.40193300 91069
FLOCK 4BE-28            
1 60519U 24149BD  26094.81508685  .00023508  00000+0  54617-3 0  9996
2 60519  97.3754 179.6005 0004833 180.4894 179.6350 15.42339856 91128
FLOCK 4BE-35            
1 60558U 24149CU  26094.78665999  .00146909  00000+0  26039-2 0  9994
2 60558  97.3745 178.4996 0005786 197.9720 162.1328 15.49706544 91037
FLOCK 4BE-5             
1 60559U 24149CV  26094.75983232  .00025709  00000+0  68559-3 0  9993
2 60559  97.3851 178.1736 0003816 180.6571 179.4669 15.38124418 90984
